{
  "63202": {
    "noradId": "63202",
    "tle": [
      "1 63202C 25048V   26128.95256944  .00018977  00000+0  68716-3 0  1281",
      "2 63202  43.0006 105.3042 0001316 259.0113 146.5863 15.27578683    11"
    ]
  },
  "63203": {
    "noradId": "63203",
    "tle": [
      "1 63203C 25048W   26128.98798611  .00004030  00000+0  14592-3 0  1285",
      "2 63203  43.0011 105.0465 0001384 263.6523 358.1606 15.27584654    16"
    ]
  },
  "63265": {
    "noradId": "63265",
    "tle": [
      "1 63265C 25053A   26128.95743056  .00065990  00000+0  51354-3 0  1288",
      "2 63265  43.0001 108.9182 0001524 276.1944 257.2454 15.70759739    19"
    ]
  },
  "63266": {
    "noradId": "63266",
    "tle": [
      "1 63266C 25053B   26128.99145833  .00059500  00000+0  46301-3 0  1288",
      "2 63266  43.0006 108.6383 0001415 277.0877 119.0735 15.70764493    19"
    ]
  },
  "63267": {
    "noradId": "63267",
    "tle": [
      "1 63267C 25053C   26128.98173611  .00067768  00000+0  52714-3 0  1283",
      "2 63267  43.0005 109.0697 0001786 244.5443 306.2564 15.70768955    18"
    ]
  },
  "63268": {
    "noradId": "63268",
    "tle": [
      "1 63268C 25053D   26128.98590278  .00062800  00000+0  48860-3 0  1285",
      "2 63268  43.0001 108.4472 0001556 239.7899 215.0895 15.70766653    12"
    ]
  },
  "63269": {
    "noradId": "63269",
    "tle": [
      "1 63269C 25053E   26128.92895833  .00055414  00000+0  43128-3 0  1280",
      "2 63269  43.0003 108.8632 0001696 271.0971 191.3279 15.70762075    18"
    ]
  },
  "63270": {
    "noradId": "63270",
    "tle": [
      "1 63270C 25053F   26128.97965278  .00068895  00000+0  53625-3 0  1288",
      "2 63270  43.0004 109.0105 0001518 257.4107 311.6818 15.70753964    14"
    ]
  },
  "63271": {
    "noradId": "63271",
    "tle": [
      "1 63271C 25053G   26128.98104167  .00068245  00000+0  53100-3 0  1289",
      "2 63271  43.0003 109.2263 0001480 240.7835 245.9654 15.70762928    19"
    ]
  },
  "63272": {
    "noradId": "63272",
    "tle": [
      "1 63272C 25053H   26128.98729167  .00063817  00000+0  49640-3 0  1287",
      "2 63272  43.0005 108.8145 0001712 241.9724  70.4661 15.70771281    15"
    ]
  },
  "63273": {
    "noradId": "63273",
    "tle": [
      "1 63273C 25053J   26128.98729167  .00063116  00000+0  49145-3 0  1280",
      "2 63273  43.0002 108.3651 0001772 256.1662 236.6717 15.70747173    16"
    ]
  },
  "63274": {
    "noradId": "63274",
    "tle": [
      "1 63274C 25053K   26128.93868056  .00031498  00000+0  24517-3 0  1281",
      "2 63274  43.0004 109.1839 0001737 268.2104  98.9494 15.70771076    12"
    ]
  },
  "63275": {
    "noradId": "63275",
    "tle": [
      "1 63275C 25053L   26128.94006944  .00063486  00000+0  49397-3 0  1288",
      "2 63275  43.0004 108.8759 0001519 272.3999 222.8525 15.70764859    10"
    ]
  },
  "63276": {
    "noradId": "63276",
    "tle": [
      "1 63276C 25053M   26128.97340278  .00071195  00000+0  55387-3 0  1285",
      "2 63276  43.0005 109.1983 0001579 240.8264 232.7439 15.70764804    10"
    ]
  },
  "63278": {
    "noradId": "63278",
    "tle": [
      "1 63278C 25053P   26128.97201389  .00144130  00000+0  52313-2 0  1281",
      "2 63278  43.0006 261.5928 0001377 278.7413 305.8671 15.27438152    13"
    ]
  },
  "63279": {
    "noradId": "63279",
    "tle": [
      "1 63279C 25053Q   26128.95118056  .00010279  00000+0  37249-3 0  1286",
      "2 63279  43.0014 257.8133 0001787 281.1991  10.0205 15.27556342    13"
    ]
  },
  "63280": {
    "noradId": "63280",
    "tle": [
      "1 63280C 25053R   26128.98034722  .00009686  00000+0  35089-3 0  1288",
      "2 63280  43.0030 261.0706 0001521 264.6749 203.9346 15.27567616    14"
    ]
  },
  "63281": {
    "noradId": "63281",
    "tle": [
      "1 63281C 25053S   26128.99562500 -.00008957  00000+0 -32509-3 0  1286",
      "2 63281  43.0019 260.6881 0001700 276.2485  36.7324 15.27514104    18"
    ]
  },
  "63282": {
    "noradId": "63282",
    "tle": [
      "1 63282C 25053T   26128.99493056 -.00007421  00000+0 -26877-3 0  1282",
      "2 63282  43.0012 261.4945 0001546 264.4524  65.1201 15.27585328    19"
    ]
  },
  "63283": {
    "noradId": "63283",
    "tle": [
      "1 63283C 25053U   26128.97965278  .00001321  00000+0  47817-4 0  1280",
      "2 63283  43.0021 260.8853 0001257 272.3065 270.2174 15.27593973    11"
    ]
  },
  "63284": {
    "noradId": "63284",
    "tle": [
      "1 63284C 25053V   26128.94493056  .00008666  00000+0  31406-3 0  1283",
      "2 63284  43.0009 253.6970 0001566 282.7632 254.3882 15.27556149    19"
    ]
  },
  "63285": {
    "noradId": "63285",
    "tle": [
      "1 63285C 25053W   26128.94215278  .00041387  00000+0  14984-2 0  1280",
      "2 63285  43.0026 261.3873 0001649 279.3403 296.5280 15.27572152    19"
    ]
  },
  "63286": {
    "noradId": "63286",
    "tle": [
      "1 63286C 25053X   26128.97965278 -.00001359  00000+0 -49242-4 0  1280",
      "2 63286  43.0002 261.4656 0001452 273.8150  28.2479 15.27574739    17"
    ]
  },
  "63287": {
    "noradId": "63287",
    "tle": [
      "1 63287C 25053Y   26128.99770833 -.00007905  00000+0 -28640-3 0  1285",
      "2 63287  43.0021 260.8711 0001450 268.7485 337.9042 15.27574208    13"
    ]
  },
  "63307": {
    "noradId": "63307",
    "tle": [
      "1 63307C 25057A   26128.94284722  .00059088  00000+0  45947-3 0  1280",
      "2 63307  43.0002 261.0185 0001969 282.5127 218.1870 15.70780151    18"
    ]
  },
  "63308": {
    "noradId": "63308",
    "tle": [
      "1 63308C 25057B   26128.93381944  .00070215  00000+0  54562-3 0  1282",
      "2 63308  42.9998 261.4466 0001737 288.3410  10.9411 15.70792078    19"
    ]
  },
  "63309": {
    "noradId": "63309",
    "tle": [
      "1 63309C 25057C   26128.94770833  .00066159  00000+0  51385-3 0  1285",
      "2 63309  42.9999 261.1381 0001807 263.2737 204.7023 15.70805531    17"
    ]
  },
  "63310": {
    "noradId": "63310",
    "tle": [
      "1 63310C 25057D   26128.94423611  .00034623  00000+0  26910-3 0  1283",
      "2 63310  43.0000 261.6822 0001878 281.6595 316.3548 15.70804384    10"
    ]
  },
  "63311": {
    "noradId": "63311",
    "tle": [
      "1 63311C 25057E   26128.95187500  .00041754  00000+0  32462-3 0  1281",
      "2 63311  43.0000 261.7102 0002075 282.8423 328.3547 15.70793325    10"
    ]
  },
  "63312": {
    "noradId": "63312",
    "tle": [
      "1 63312C 25057F   26128.94076389 -.00052793  00000+0 -41105-3 0  1284",
      "2 63312  42.9999 261.5651 0001456 266.2958   7.1208 15.70806785    15"
    ]
  },
  "63313": {
    "noradId": "63313",
    "tle": [
      "1 63313C 25057G   26128.94562500 -.00186230  00000+0 -14434-2 0  1288",
      "2 63313  42.9998 261.5226 0001709 272.9436  33.0277 15.70980922    19"
    ]
  },
  "63314": {
    "noradId": "63314",
    "tle": [
      "1 63314C 25057H   26128.94215278  .00066884  00000+0  51991-3 0  1286",
      "2 63314  42.9999 261.4683 0001609 283.3245  33.0809 15.70785929    11"
    ]
  },
  "63315": {
    "noradId": "63315",
    "tle": [
      "1 63315C 25057J   26128.96993056  .00026219  00000+0  20379-3 0  1280",
      "2 63315  42.9998 261.1504 0001350 273.4261 260.3686 15.70809103    10"
    ]
  },
  "63316": {
    "noradId": "63316",
    "tle": [
      "1 63316C 25057K   26128.95048611  .00047954  00000+0  37268-3 0  1282",
      "2 63316  43.0000 261.5671 0001771 283.7579  19.7088 15.70800024    14"
    ]
  },
  "63317": {
    "noradId": "63317",
    "tle": [
      "1 63317C 25057L   26128.94493056  .00037401  00000+0  29061-3 0  1287",
      "2 63317  43.0001 260.9270 0001621 287.3440 255.2205 15.70810513    17"
    ]
  },
  "63318": {
    "noradId": "63318",
    "tle": [
      "1 63318C 25057M   26128.93034722  .00074180  00000+0  57529-3 0  1283",
      "2 63318  42.9996 261.1645 0001792 280.2194 119.5670 15.70836715    15"
    ]
  },
  "63319": {
    "noradId": "63319",
    "tle": [
      "1 63319C 25057N   26128.97965278  .00019829  00000+0  15413-3 0  1282",
      "2 63319  42.9997 261.0154 0001873 264.3943 354.5035 15.70808511    15"
    ]
  },
  "63320": {
    "noradId": "63320",
    "tle": [
      "1 63320C 25057P   26128.93312500 -.00107610  00000+0 -38959-2 0  1281",
      "2 63320  43.0036  39.9942 0001099 265.1580 101.3671 15.27647621    15"
    ]
  },
  "63321": {
    "noradId": "63321",
    "tle": [
      "1 63321C 25057Q   26128.99840278 -.00133390  00000+0 -48308-2 0  1289",
      "2 63321  42.9996  50.0399 0001319 269.3132  83.3875 15.27648864    18"
    ]
  },
  "63322": {
    "noradId": "63322",
    "tle": [
      "1 63322C 25057R   26128.96784722 -.00105520  00000+0 -38204-2 0  1286",
      "2 63322  43.0007  50.1055 0001545 267.3229 319.5956 15.27642675    18"
    ]
  },
  "63323": {
    "noradId": "63323",
    "tle": [
      "1 63323C 25057S   26128.98451389 -.00154240  00000+0 -55843-2 0  1280",
      "2 63323  43.0015  50.3088 0001100 263.0418 295.3984 15.27668036    17"
    ]
  },
  "63324": {
    "noradId": "63324",
    "tle": [
      "1 63324C 25057T   26128.95604167 -.00060144  00000+0 -21779-2 0  1282",
      "2 63324  43.0020  50.0533 0001470 266.7103 304.7408 15.27616771    12"
    ]
  },
  "63325": {
    "noradId": "63325",
    "tle": [
      "1 63325C 25057U   26128.98312500 -.00060064  00000+0 -21761-2 0  1285",
      "2 63325  43.0040  50.6318 0001323 266.9996 149.3612 15.27600331    16"
    ]
  },
  "63326": {
    "noradId": "63326",
    "tle": [
      "1 63326C 25057V   26128.96506944 -.00091625  00000+0 -33177-2 0  1282",
      "2 63326  42.9994  50.1932 0001369 259.7598 276.5088 15.27633132    13"
    ]
  },
  "63327": {
    "noradId": "63327",
    "tle": [
      "1 63327C 25057W   26128.99493056 -.00101270  00000+0 -36731-2 0  1282",
      "2 63327  43.0018  42.6752 0001251 261.2968 265.0234 15.27585084    16"
    ]
  }
}